{"places":[{"place":{"osmId":424314088,"osmType":1,"osmTags":{"alt_name:sd":"پاکستان","alt_name:vi":"Hồi Quốc","capital_city":"اسلام آباد","country_code_fips":"PK","country_code_iso3166_1_alpha_2":"PK","geonames:id":"1168579","name":"پاکستان","name:ace":"Pakistan","name:af":"Pakistan","name:ak":"Pakistan","name:als":"Pakistan","name:am":"ፓኪስታን","name:an":"Pakistán","name:ang":"Pacistan","name:ar":"باكستان","name:arc":"ܦܩܝܣܛܢ","name:arz":"باكيستان","name:as":"পাকিস্তান","name:ast":"Paquistán","name:az":"Pakistan","name:azb":"پاکیستان","name:ba":"Пакистан","name:bar":"Pakistan","name:bat-smg":"Pakėstans","name:bcl":"Pakistan","name:be":"Пакістан","name:be-tarask":"Пакістан","name:bg":"Пакистан","name:bh":"पाकिस्तान","name:bjn":"Pakistan","name:bm":"Pakisitaŋ","name:bn":"পাকিস্তান","name:bo":"པ་ཀི་སི་ཏན།","name:bpy":"পাকিস্তান","name:br":"Pakistan","name:bs":"Pakistan","name:bug":"Pakistan","name:bxr":"Пакистан","name:ca":"Pakistan","name:cbk-zam":"Pakistan","name:ce":"Пакистан","name:ceb":"Pakistan","name:chr":"ᏆᎩᏍᏖᏂ","name:ckb":"پاکستان","name:crh":"Pakistan","name:cs":"Pákistán","name:csb":"Pakistan","name:cv":"Пакистан","name:cy":"Pakistan","name:da":"Pakistan","name:de":"Pakistan","name:diq":"Pakıstan","name:dsb":"Pakistan","name:dv":"ޕާކިސްތާން","name:dz":"པ་ཀི་སཏཱན","name:ee":"Pakistan nutome","name:el":"Πακιστάν","name:en":"Pakistan","name:eo":"Pakistano","name:es":"Pakistán","name:et":"Pakistan","name:eu":"Pakistan","name:ext":"Paquistán","name:fa":"پاکستان","name:ff":"Pakistaan","name:fi":"Pakistan","name:fo":"Pakistan","name:fr":"Pakistan","name:frp":"Paquistan","name:fur":"Pakistan","name:fy":"Pakistan","name:ga":"An Phacastáin","name:gag":"Pakistan","name:gan":"巴基斯坦","name:gd":"Pagastàn","name:gl":"Paquistán","name:gn":"Pakistán","name:gu":"પાકિસ્તાન","name:gv":"Yn Phakistaan","name:ha":"Pakistan","name:hak":"Pâ-kî-sṳ̂-thán","name:haw":"Pakitana","name:he":"פקיסטן","name:hi":"पाकिस्तान","name:hif":"Pakistan","name:hr":"Pakistan","name:hsb":"Pakistan","name:ht":"Pakistan","name:hu":"Pakisztán","name:hy":"Պակիստան","name:ia":"Pakistan","name:id":"Pakistan","name:ie":"Pakistan","name:ilo":"Pakistan","name:io":"Pakistan","name:is":"Pakistan","name:it":"Pakistan","name:iu":"ᐸᑭᔅᑕᓐ","name:iu-Latn":"pakistan","name:ja":"パキスタン","name:jbo":"kisygu'e","name:jv":"Pakistan","name:ka":"პაკისტანი","name:kab":"Pakistan","name:kab-Arab":"پاكستان","name:kbd":"Пакистэн","name:ki":"Pakistani","name:kk":"Пәкістан","name:kk-Arab":"پاكىستان","name:kl":"Pakistan","name:km":"ប៉ាគីស្ថាន","name:kmr":"پاکستان","name:kn":"ಪಾಕಿಸ್ತಾನ","name:ko":"파키스탄","name:ks":"پاکِستان","name:ksh":"Pakistahn","name:ku":"Pakistan","name:ku-Arab":"پاکستان","name:kv":"Пакистан","name:kw":"Pakistan","name:ky":"Пакистан","name:la":"Pakistania","name:lb":"Pakistan","name:lez":"Пакистан","name:lfn":"Pacistan","name:lg":"Pakisitaani","name:li":"Pakistan","name:lij":"Pakistan","name:lmo":"Pakistan","name:ln":"Pakistáni","name:lo":"ປາກິສຖານ","name:lrc":"پاکستان","name:lt":"Pakistanas","name:lv":"Pakistāna","name:lzh":"巴基斯坦","name:mdf":"Пакистан","name:mg":"Pakistan","name:mhr":"Пакистан","name:mi":"Pakitāne","name:mk":"Пакистан","name:ml":"പാകിസ്താൻ","name:mn":"Пакистан","name:mr":"पाकिस्तान","name:ms":"Pakistan","name:mt":"Pakistan","name:my":"ပါကစ္စတန်","name:mzn":"پاکستون","name:na":"Pakistan","name:nah":"Paquistan","name:nan":"Pakistan","name:nap":"Pakistan","name:nb":"Pakistan","name:nds":"Pakistan","name:nds-nl":"Pakistan","name:ne":"पाकिस्तान","name:nl":"Pakistan","name:nn":"Pakistan","name:no":"Pakistan","name:nov":"Pakistan","name:nv":"Eʼeʼaahjí Naakaii Dootłʼizhí Bikéyah","name:oc":"Paquistan","name:or":"ପାକିସ୍ତାନ","name:os":"Пакистан","name:pa":"ਪਾਕਿਸਤਾਨ","name:pam":"Pakistan","name:pap":"Pakistan","name:pih":"Pakistaan","name:pl":"Pakistan","name:pms":"Pakistan","name:pnb":"پاکستان","name:ps":"پاکستان","name:pt":"Paquistão","name:qu":"Pakistan","name:rm":"Pakistan","name:rmy":"Pakistan","name:rn":"Pakisitani","name:ro":"Pakistan","name:roa-tara":"Pakistan","name:ru":"Пакистан","name:rue":"Пакістан","name:rw":"Pakisitani","name:sa":"पाकिस्तान","name:sah":"Пакистан","name:scn":"Pakistan","name:sco":"Pakistan","name:sd":"پاڪستان","name:se":"Pakistan","name:sg":"Pakistäan","name:sh":"Pakistan","name:si":"පාකිස්තානය","name:sk":"Pakistan","name:skr":"پاکستان","name:sl":"Pakistan","name:smn":"Pakistan","name:sms":"Pakistaan","name:sn":"Pakistan","name:so":"Bakistaan","name:sq":"Pakistani","name:sr":"Пакистан","name:srn":"Pakistan","name:ss":"IPhakhistani","name:stq":"Pakistan","name:su":"Pakistan","name:sv":"Pakistan","name:sw":"Pakistan","name:syc":"ܦܐܩܣܛܐܢ","name:szl":"Pakistan","name:ta":"பாக்கித்தான்","name:te":"పాకిస్తాన్","name:tg":"Покистон","name:th":"ประเทศปากีสถาน","name:ti":"ፓኪስታን","name:tk":"Päkistan","name:tl":"Pakistan","name:to":"Pākisitani","name:tok":"ma Pakisan","name:tr":"Pakistan","name:tt":"Пакьстан","name:tzl":"Pachistan","name:udm":"Пакистан","name:ug":"پاكىستان","name:uk":"Пакистан","name:ur":"پاکستان","name:uz":"Pokiston","name:vec":"Pakistan","name:vi":"Pakistan","name:vo":"Pakistän","name:vro":"Pakistan","name:wa":"Pakistan","name:war":"Pakistan","name:wo":"Pakistaan","name:wuu":"巴基斯坦","name:xal":"Сарта Паксин Орн","name:xmf":"პაკისტანი","name:yi":"פאקיסטאן","name:yo":"Pakistan","name:yue":"巴基斯坦","name:zea":"Pakistan","name:zh":"巴基斯坦","name:zh-Hans":"巴基斯坦","name:zh-Hant":"巴基斯坦","name:zh-Latn-pinyin":"Bājīsītǎn","name:zu":"i-Pakistan","official_name":"اسلامی جمہوریۂ پاکستان","official_name:af":"Islamistiese Republiek van Pakistan","official_name:ar":"جمهورية باكستان الإسلامية","official_name:be":"Ісламская Рэспубліка Пакістан","official_name:br":"Republik islamek Pakistan","official_name:de":"Islamische Republik Pakistan","official_name:el":"Ισλαμική Δημοκρατία του Πακιστάν","official_name:en":"Islamic Republic of Pakistan","official_name:eo":"Islama Respubliko de Pakistano","official_name:fa":"جمهوری اسلامی پاکستان","official_name:fr":"République islamique du Pakistan","official_name:id":"Republik Islam Pakistan","official_name:it":"Repubblica Islamica del Pakistan","official_name:kk-Arab":"پاكىستان ىيسلام رەسپۋبلىيكاسى","official_name:ks":"اِسلامی جمہوٗرِیت پاکِستان","official_name:ku":"Komara Îslamî ya Pakistanê","official_name:lb":"Islamische Republik Pakistan","official_name:lt":"Pakistano Islamo Respublika","official_name:lv":"Pakistānas Islāma Republika","official_name:pl":"Islamska Republika Pakistanu","official_name:ru":"Исламская Республика Пакистан","official_name:sv":"Islamiska republiken Pakistan","official_name:ug":"پاكىستان ئىسلام جۇمھۇرىيىتى","official_name:ur":"اسلامی جمہوریۂ پاکستان","official_name:vi":"Cộng hoà Hồi giáo Pakistan","place":"country","population":"172800000","source:sqkm":"CIA World Factbook","sqkm":"796095","wikidata":"Q843","wikipedia":"ur:پاکستان"},"placeType":8,"name":"پاکستان","boundingBox":null,"location":{"latitude":30.334953881988568,"longitude":71.25732421875},"countryCode":"PK","type":1},"isFavorite":false,"updated":1734727236006,"viewOrd":0},{"place":{"osmId":6221175586,"osmType":1,"osmTags":{"name:en":"Hotel Rahi","tourism":"hotel"},"placeType":18,"name":null,"boundingBox":null,"location":{"latitude":20.012941769121497,"longitude":73.79347622394562},"countryCode":"IN","type":1},"isFavorite":false,"updated":1734727249593,"viewOrd":1},{"place":{"osmId":247613983,"osmType":3,"osmTags":{"leisure":"stadium","sport":"cricket"},"placeType":18,"name":null,"boundingBox":null,"location":{"latitude":20.011575790540675,"longitude":73.79805207252502},"countryCode":"IN","type":1},"isFavorite":false,"updated":1734727253989,"viewOrd":2}],"version":"47.2"}